     2.10           N: GPS NAV DATA                         RINEX VERSION / TYPE
teqc  2013Mar15     IGN-E               20190214 01:30:16UTCPGM / RUN BY / DATE
Linux 2.4.20-8|Pentium IV|gcc -static|Linux|486/DX+         COMMENT
                                                            END OF HEADER
19 19  2 13 12  0  0.0-3.529428504407D-04 4.092726157978D-12 0.000000000000D+00
    5.400000000000D+01-6.212500000000D+01 3.968736894677D-09-1.749038958996D+00
   -2.937391400337D-06 9.381723124534D-03 5.904585123062D-06 5.153624897003D+03
    3.024000000000D+05 2.011656761169D-07-2.054603503397D+00 1.098960638046D-07
    9.814871746290D-01 2.705312500000D+02 1.343331223526D+00-7.897829057413D-09
   -1.357199422292D-11 1.000000000000D+00 2.040000000000D+03 0.000000000000D+00
    2.000000000000D+00 0.000000000000D+00-1.536682248116D-08 5.400000000000D+01
    3.018900000000D+05
17 19  2 13 14  0  0.0 9.221490472555D-06 5.456968210638D-12 0.000000000000D+00
    7.000000000000D+01-6.612500000000D+01 3.829802253108D-09 2.784135846273D+00
   -3.322958946228D-06 1.299049844965D-02 6.176531314850D-06 5.153696664810D+03
    3.096000000000D+05 1.303851604462D-07-2.101126219129D+00-5.215406417847D-08
    9.837660279524D-01 2.691562500000D+02-1.722740474210D+00-7.704606730385D-09
   -1.228622620308D-10 1.000000000000D+00 2.040000000000D+03 0.000000000000D+00
    2.000000000000D+00 0.000000000000D+00-1.117587089539D-08 7.000000000000D+01
    3.024000000000D+05
19 19  2 13 14  0  0.0-3.529130481184D-04 4.092726157978D-12 0.000000000000D+00
    5.900000000000D+01-6.309375000000D+01 4.011952992045D-09-6.989449816583D-01
   -3.077089786530D-06 9.381401119754D-03 6.765127182007D-06 5.153622791290D+03
    3.096000000000D+05-4.656612873077D-08-2.054661339863D+00 1.396983861923D-07
    9.814860145350D-01 2.625937500000D+02 1.343444968333D+00-8.124981576429D-09
   -1.714357128479D-11 1.000000000000D+00 2.040000000000D+03 0.000000000000D+00
    2.000000000000D+00 0.000000000000D+00-1.536682248116D-08 5.900000000000D+01
    3.024000000000D+05
13 19  2 13 14  0  0.0-7.506832480431D-05 1.250555214938D-12 0.000000000000D+00
    7.700000000000D+01-1.125000000000D+00 4.586976576348D-09 1.720855533523D+00
   -1.192092895508D-07 3.726486582309D-03 9.261071681976D-06 5.153660669327D+03
    3.096000000000D+05-2.421438694000D-08 1.109858726162D+00-1.303851604462D-07
    9.678809451549D-01 2.040000000000D+02 1.372194951256D+00-7.931044265774D-09
   -2.960837686139D-10 1.000000000000D+00 2.040000000000D+03 0.000000000000D+00
    2.000000000000D+00 0.000000000000D+00-1.117587089539D-08 7.700000000000D+01
    3.024000000000D+05
28 19  2 13 14  0  0.0 7.644784636796D-04 7.958078640513D-13 0.000000000000D+00
    7.000000000000D+01 4.771875000000D+01 3.981594609570D-09-2.616520718510D+00
    2.473592758179D-06 1.930993841961D-02 4.393979907036D-06 5.153700651169D+03
    3.096000000000D+05 1.788139343262D-07-3.111369418534D+00 3.911554813385D-08
    9.835435312788D-01 3.059375000000D+02-1.474147262893D+00-7.711392413512D-09
   -7.143154557437D-12 1.000000000000D+00 2.040000000000D+03 0.000000000000D+00
    2.800000000000D+00 0.000000000000D+00-1.117587089539D-08 7.000000000000D+01
    3.024000000000D+05
30 19  2 13 14  0  0.0-5.202228203416D-05-6.366462912410D-12 0.000000000000D+00
    9.100000000000D+01 7.496875000000D+01 4.878417669829D-09 4.436040724045D-02
    3.674998879433D-06 3.665140597150D-03 8.914619684219D-06 5.153631980896D+03
    3.096000000000D+05 3.539025783539D-08 2.080791451556D+00 2.421438694000D-08
    9.415381310253D-01 1.950625000000D+02-3.023485915456D+00-8.304631649025D-09
   -1.992940118489D-10 1.000000000000D+00 2.040000000000D+03 0.000000000000D+00
    2.000000000000D+00 0.000000000000D+00 3.725290298462D-09 9.100000000000D+01
    3.024000000000D+05
20 19  2 13 14  0  0.0 5.221632309258D-04 3.410605131648D-13 0.000000000000D+00
    1.800000000000D+01-1.225000000000D+01 5.471656461253D-09 3.516344167677D-01
   -6.631016731262D-07 4.408247186802D-03 7.094815373421D-06 5.153670209885D+03
    3.096000000000D+05-6.146728992462D-08-1.763843795288D-01-3.911554813385D-08
    9.303423019312D-01 2.266562500000D+02 2.276427500926D+00-8.561070963253D-09
    3.142988092009D-10 1.000000000000D+00 2.040000000000D+03 0.000000000000D+00
    2.000000000000D+00 0.000000000000D+00-8.381903171539D-09 1.800000000000D+01
    3.024000000000D+05
15 19  2 13 14  0  0.0-3.280276432633D-04 1.705302565824D-12 0.000000000000D+00
    2.400000000000D+01-1.778125000000D+01 5.611305198272D-09 1.938830792542D+00
   -9.816139936447D-07 1.121171074919D-02 8.216127753258D-06 5.153633054733D+03
    3.096000000000D+05-2.719461917877D-07 8.967636331191D-01-1.136213541031D-07
    9.280113292254D-01 2.074687500000D+02 7.633479956395D-01-8.483567626172D-09
   -2.500104012704D-10 1.000000000000D+00 2.040000000000D+03 0.000000000000D+00
    2.000000000000D+00 0.000000000000D+00-1.071020960808D-08 2.400000000000D+01
    3.024000000000D+05
24 19  2 13 14  0  0.0-6.211176514626D-05-5.684341886081D-13 0.000000000000D+00
    5.100000000000D+01 6.206250000000D+01 4.993422120236D-09 9.518955778602D-01
    3.444030880928D-06 8.169863140211D-03 9.732320904732D-06 5.153734146118D+03
    3.096000000000D+05-5.960464477539D-08 1.986848783175D+00 1.043081283569D-07
    9.391332999744D-01 1.782187500000D+02 5.947416911387D-01-8.342490254165D-09
   -2.750114580508D-10 1.000000000000D+00 2.040000000000D+03 0.000000000000D+00
    2.000000000000D+00 0.000000000000D+00 2.793967723846D-09 5.100000000000D+01
    3.024000000000D+05
 5 19  2 13 14  0  0.0 1.079402863979D-06 1.136868377216D-13 0.000000000000D+00
    8.300000000000D+01-1.200000000000D+01 5.082354537222D-09-2.693531754443D+00
   -8.009374141693D-07 5.552631453611D-03 7.461756467819D-06 5.153622064590D+03
    3.096000000000D+05 3.352761268616D-08-8.356285645410D-02-1.396983861923D-07
    9.495959452484D-01 2.303437500000D+02 7.138064957857D-01-8.190697897703D-09
    2.878691451880D-10 1.000000000000D+00 2.040000000000D+03 0.000000000000D+00
    2.000000000000D+00 0.000000000000D+00-1.117587089539D-08 8.300000000000D+01
    3.024000000000D+05
12 19  2 13 13 59 44.0 2.682930789888D-04-3.183231456205D-12 0.000000000000D+00
    2.500000000000D+01 4.793750000000D+01 4.191603064641D-09-6.793800074300D-01
    2.514570951462D-06 7.428279728629D-03 4.844740033150D-06 5.153698749542D+03
    3.095840000000D+05-5.401670932770D-08-3.134296141935D+00 1.508742570877D-07
    9.842417440422D-01 2.979062500000D+02 1.033113126474D+00-8.189983802254D-09
   -3.428714256959D-11 1.000000000000D+00 2.040000000000D+03 0.000000000000D+00
    2.000000000000D+00 0.000000000000D+00-1.257285475731D-08 2.500000000000D+01
    3.036300000000D+05
10 19  2 13 13 59 44.0 1.175492070615D-04-7.503331289627D-12 0.000000000000D+00
    3.000000000000D+00-1.440625000000D+01 4.722696900217D-09-1.385016247646D+00
   -8.028000593185D-07 4.322045249864D-03 7.113441824913D-06 5.153660306931D+03
    3.095840000000D+05 4.470348358154D-08-6.143703973931D-02 1.676380634308D-08
    9.627648909536D-01 2.412812500000D+02-2.753229444566D+00-8.111766369723D-09
    3.060841857749D-10 1.000000000000D+00 2.040000000000D+03 0.000000000000D+00
    2.000000000000D+00 0.000000000000D+00 1.862645149231D-09 3.000000000000D+00
    3.046200000000D+05
28 19  2 13 13 59 44.0 7.644873112440D-04 9.094947017729D-13 0.000000000000D+00
    1.000000000000D+00 4.771875000000D+01 3.981594609570D-09-2.618854331783D+00
    2.473592758179D-06 1.930993632413D-02 4.393979907036D-06 5.153700645447D+03
    3.095840000000D+05 1.788139343262D-07-3.111369300037D+00 3.911554813385D-08
    9.835435312788D-01 3.059375000000D+02-1.474147286300D+00-7.711392413512D-09
   -7.143154557437D-12 1.000000000000D+00 2.040000000000D+03 0.000000000000D+00
    2.000000000000D+00 0.000000000000D+00-1.117587089539D-08 1.000000000000D+00
    3.066300000000D+05
